[
    {
        "Altitude(m)": 570313.461044987,
        "Argument of Periapsis(deg)": -0.03013754771062987,
        "Eccentricity": 0.0,
        "Inclination(deg)": 97.0,
        "Latitude(deg)": 45.26074592020478,
        "Longitude(deg)": 143.9419390215399,
        "Mean Anomaly(deg)": 134.4327910255833,
        "RAAN(deg)": 60.00792940482467,
        "Satellite Name": "Starlink Shell 3 1714",
        "Satellite Number": 1714,
        "Semi-Major Axis(m)": 6938478.169268562,
        "Time(s)": 760
    },
    {
        "Altitude(m)": 570174.6029207521,
        "Argument of Periapsis(deg)": -0.030534094391032898,
        "Eccentricity": 0.0,
        "Inclination(deg)": 97.0,
        "Latitude(deg)": 44.64401060983891,
        "Longitude(deg)": 143.7487506021771,
        "Mean Anomaly(deg)": 135.05826722328837,
        "RAAN(deg)": 60.008033739098686,
        "Satellite Name": "Starlink Shell 3 1714",
        "Satellite Number": 1714,
        "Semi-Major Axis(m)": 6938478.169268562,
        "Time(s)": 770
    },
    {
        "Altitude(m)": 570036.3648924064,
        "Argument of Periapsis(deg)": -0.030930641071435925,
        "Eccentricity": 0.0,
        "Inclination(deg)": 97.0,
        "Latitude(deg)": 44.027004472493786,
        "Longitude(deg)": 143.55873247998494,
        "Mean Anomaly(deg)": 135.6837434209934,
        "RAAN(deg)": 60.00813807337269,
        "Satellite Name": "Starlink Shell 3 1714",
        "Satellite Number": 1714,
        "Semi-Major Axis(m)": 6938478.169268562,
        "Time(s)": 780
    },
    {
        "Altitude(m)": 569898.8337007852,
        "Argument of Periapsis(deg)": -0.031327187751838945,
        "Eccentricity": 0.0,
        "Inclination(deg)": 97.0,
        "Latitude(deg)": 43.409735730040445,
        "Longitude(deg)": 143.3717541286528,
        "Mean Anomaly(deg)": 136.30921961869845,
        "RAAN(deg)": 60.008242407646705,
        "Satellite Name": "Starlink Shell 3 1714",
        "Satellite Number": 1714,
        "Semi-Major Axis(m)": 6938478.169268562,
        "Time(s)": 790
    },
    {
        "Altitude(m)": 569762.0959973079,
        "Argument of Periapsis(deg)": -0.031723734432241975,
        "Eccentricity": 0.0,
        "Inclination(deg)": 97.0,
        "Latitude(deg)": 42.792212232871364,
        "Longitude(deg)": 143.1876910921608,
        "Mean Anomaly(deg)": 136.9346958164035,
        "RAAN(deg)": 60.008346741920704,
        "Satellite Name": "Starlink Shell 3 1714",
        "Satellite Number": 1714,
        "Semi-Major Axis(m)": 6938478.169268562,
        "Time(s)": 800
    },
    {
        "Altitude(m)": 569626.238299875,
        "Argument of Periapsis(deg)": -0.032120281112645,
        "Eccentricity": 0.0,
        "Inclination(deg)": 97.0,
        "Latitude(deg)": 42.1744414862402,
        "Longitude(deg)": 143.0064250731751,
        "Mean Anomaly(deg)": 137.56017201410853,
        "RAAN(deg)": 60.00845107619472,
        "Satellite Name": "Starlink Shell 3 1714",
        "Satellite Number": 1714,
        "Semi-Major Axis(m)": 6938478.169268562,
        "Time(s)": 810
    },
    {
        "Altitude(m)": 569491.3469487556,
        "Argument of Periapsis(deg)": -0.03251682779304802,
        "Eccentricity": 0.0,
        "Inclination(deg)": 97.0,
        "Latitude(deg)": 41.55643067461352,
        "Longitude(deg)": 142.82784405208758,
        "Mean Anomaly(deg)": 138.1856482118136,
        "RAAN(deg)": 60.00855541046872,
        "Satellite Name": "Starlink Shell 3 1714",
        "Satellite Number": 1714,
        "Semi-Major Axis(m)": 6938478.169268562,
        "Time(s)": 820
    },
    {
        "Altitude(m)": 569357.5080624593,
        "Argument of Periapsis(deg)": -0.032913374473451044,
        "Eccentricity": 0.0,
        "Inclination(deg)": 97.0,
        "Latitude(deg)": 40.93818668420616,
        "Longitude(deg)": 142.65184092123582,
        "Mean Anomaly(deg)": 138.81112440951864,
        "RAAN(deg)": 60.008659744742744,
        "Satellite Name": "Starlink Shell 3 1714",
        "Satellite Number": 1714,
        "Semi-Major Axis(m)": 6938478.169268562,
        "Time(s)": 830
    },
    {
        "Altitude(m)": 569224.8074936592,
        "Argument of Periapsis(deg)": -0.03330992115385407,
        "Eccentricity": 0.0,
        "Inclination(deg)": 97.0,
        "Latitude(deg)": 40.319716123847314,
        "Longitude(deg)": 142.47831365770693,
        "Mean Anomaly(deg)": 139.43660060722368,
        "RAAN(deg)": 60.00876407901676,
        "Satellite Name": "Starlink Shell 3 1714",
        "Satellite Number": 1714,
        "Semi-Major Axis(m)": 6938478.169268562,
        "Time(s)": 840
    },
    {
        "Altitude(m)": 569093.3307851338,
        "Argument of Periapsis(deg)": -0.0337064678342571,
        "Eccentricity": 0.0,
        "Inclination(deg)": 97.0,
        "Latitude(deg)": 39.70102534431987,
        "Longitude(deg)": 142.3071655197226,
        "Mean Anomaly(deg)": 140.06207680492872,
        "RAAN(deg)": 60.00886841329077,
        "Satellite Name": "Starlink Shell 3 1714",
        "Satellite Number": 1714,
        "Semi-Major Axis(m)": 6938478.169268562,
        "Time(s)": 850
    },
    {
        "Altitude(m)": 568963.1631257973,
        "Argument of Periapsis(deg)": -0.03410301451466012,
        "Eccentricity": 0.0,
        "Inclination(deg)": 97.0,
        "Latitude(deg)": 39.082120456298355,
        "Longitude(deg)": 142.13830358370473,
        "Mean Anomaly(deg)": 140.68755300263376,
        "RAAN(deg)": 60.008972747564755,
        "Satellite Name": "Starlink Shell 3 1714",
        "Satellite Number": 1714,
        "Semi-Major Axis(m)": 6938478.169268562,
        "Time(s)": 860
    },
    {
        "Altitude(m)": 568834.3893068174,
        "Argument of Periapsis(deg)": -0.034499561195063144,
        "Eccentricity": 0.0,
        "Inclination(deg)": 97.0,
        "Latitude(deg)": 38.46300734699473,
        "Longitude(deg)": 141.9716398226984,
        "Mean Anomaly(deg)": 141.3130292003388,
        "RAAN(deg)": 60.009077081838775,
        "Satellite Name": "Starlink Shell 3 1714",
        "Satellite Number": 1714,
        "Semi-Major Axis(m)": 6938478.169268562,
        "Time(s)": 870
    },
    {
        "Altitude(m)": 568707.093677841,
        "Argument of Periapsis(deg)": -0.03489610787546617,
        "Eccentricity": 0.0,
        "Inclination(deg)": 97.0,
        "Latitude(deg)": 37.84369169562146,
        "Longitude(deg)": 141.80708968164058,
        "Mean Anomaly(deg)": 141.93850539804384,
        "RAAN(deg)": 60.00918141611279,
        "Satellite Name": "Starlink Shell 3 1714",
        "Satellite Number": 1714,
        "Semi-Major Axis(m)": 6938478.169268562,
        "Time(s)": 880
    },
    {
        "Altitude(m)": 568581.3601033427,
        "Argument of Periapsis(deg)": -0.0352926545558692,
        "Eccentricity": 0.0,
        "Inclination(deg)": 97.0,
        "Latitude(deg)": 37.22417898775968,
        "Longitude(deg)": 141.64457235045478,
        "Mean Anomaly(deg)": 142.56398159574888,
        "RAAN(deg)": 60.009285750386795,
        "Satellite Name": "Starlink Shell 3 1714",
        "Satellite Number": 1714,
        "Semi-Major Axis(m)": 6938478.169268562,
        "Time(s)": 890
    },
    {
        "Altitude(m)": 568457.2719191631,
        "Argument of Periapsis(deg)": -0.035689201236272214,
        "Eccentricity": 0.0,
        "Inclination(deg)": 97.0,
        "Latitude(deg)": 36.604474528720715,
        "Longitude(deg)": 141.48401105267632,
        "Mean Anomaly(deg)": 143.18945779345393,
        "RAAN(deg)": 60.00939008466081,
        "Satellite Name": "Starlink Shell 3 1714",
        "Satellite Number": 1714,
        "Semi-Major Axis(m)": 6938478.169268562,
        "Time(s)": 900
    },
    {
        "Altitude(m)": 568334.9118892003,
        "Argument of Periapsis(deg)": -0.036085747916675244,
        "Eccentricity": 0.0,
        "Inclination(deg)": 97.0,
        "Latitude(deg)": 35.98458345597958,
        "Longitude(deg)": 141.32533183552647,
        "Mean Anomaly(deg)": 143.814933991159,
        "RAAN(deg)": 60.00949441893482,
        "Satellite Name": "Starlink Shell 3 1714",
        "Satellite Number": 1714,
        "Semi-Major Axis(m)": 6938478.169268562,
        "Time(s)": 910
    },
    {
        "Altitude(m)": 568214.3621623195,
        "Argument of Periapsis(deg)": -0.03648229459707827,
        "Eccentricity": 0.0,
        "Inclination(deg)": 97.0,
        "Latitude(deg)": 35.36451075074836,
        "Longitude(deg)": 141.16846388608397,
        "Mean Anomaly(deg)": 144.440410188864,
        "RAAN(deg)": 60.00959875320882,
        "Satellite Name": "Starlink Shell 3 1714",
        "Satellite Number": 1714,
        "Semi-Major Axis(m)": 6938478.169268562,
        "Time(s)": 920
    },
    {
        "Altitude(m)": 568095.704229469,
        "Argument of Periapsis(deg)": -0.0368788412774813,
        "Eccentricity": 0.0,
        "Inclination(deg)": 97.0,
        "Latitude(deg)": 34.7442612487554,
        "Longitude(deg)": 141.01333985967213,
        "Mean Anomaly(deg)": 145.06588638656905,
        "RAAN(deg)": 60.009703087482826,
        "Satellite Name": "Starlink Shell 3 1714",
        "Satellite Number": 1714,
        "Semi-Major Axis(m)": 6938478.169268562,
        "Time(s)": 930
    },
    {
        "Altitude(m)": 567979.0188810799,
        "Argument of Periapsis(deg)": -0.037275387957884314,
        "Eccentricity": 0.0,
        "Inclination(deg)": 97.0,
        "Latitude(deg)": 34.123839650291764,
        "Longitude(deg)": 140.85989470666533,
        "Mean Anomaly(deg)": 145.6913625842741,
        "RAAN(deg)": 60.00980742175684,
        "Satellite Name": "Starlink Shell 3 1714",
        "Satellite Number": 1714,
        "Semi-Major Axis(m)": 6938478.169268562,
        "Time(s)": 940
    }
]